[
    {
        "Altitude(m)": 607886.6671761861,
        "Argument of Periapsis(deg)": 0.0,
        "Eccentricity": 0.0,
        "Inclination(deg)": 60.0,
        "Latitude(deg)": 40.99837790908936,
        "Longitude(deg)": -105.02702032334375,
        "Mean Anomaly(deg)": -310.9091,
        "RAAN(deg)": 325.0,
        "Satellite Name": "Test1 1433",
        "Satellite Number": 1433,
        "Semi-Major Axis(m)": 6980739.136638005,
        "Time(s)": 0
    },
    {
        "Altitude(m)": 607987.5811655249,
        "Argument of Periapsis(deg)": 0.00010418945913296404,
        "Eccentricity": 0.0,
        "Inclination(deg)": 60.0,
        "Latitude(deg)": 41.46346799296507,
        "Longitude(deg)": -104.52279295719272,
        "Mean Anomaly(deg)": -310.28899385453815,
        "RAAN(deg)": 324.99957995086027,
        "Satellite Name": "Test1 1433",
        "Satellite Number": 1433,
        "Semi-Major Axis(m)": 6980739.136638005,
        "Time(s)": 10
    }
]